MULTIPOLYGON (((2.161820888519287 1.4444825649261475, 2.187495470046997 2.3355650901794434, 2.2994611263275146 2.225416421890259, 2.4058873653411865 2.1099066734313965, 2.5065176486968994 1.9893138408660889, 2.601109504699707 1.8639286756515503, 2.689434766769409 1.7340530157089233, 2.161820888519287 1.4444825649261475)), ((-3.1433207988739014 -7.81830358505249, -2.9738402366638184 -8.002249717712402, -3.1433207988739014 -7.818304061889648, -3.193572759628296 -7.751692771911621, -3.1433207988739014 -7.81830358505249)), ((-0.7768388986587524 -5.412780284881592, -0.7119078636169434 -5.465184688568115, -0.6496263742446899 -5.520711898803711, -0.5901445746421814 -5.579228401184082, -0.5336056351661682 -5.6405930519104, -0.4801458418369293 -5.704658031463623, -0.4298939406871796 -5.771268844604492, -0.3829710483551025 -5.840265274047852, -0.3394901156425476 -5.911480903625488, -0.2995559871196747 -5.984744071960449, -0.2632648050785065 -6.059878826141357, -0.2307040393352508 -6.1367034912109375, -0.2019520998001099 -6.215033531188965, -0.1770782619714737 -6.294680118560791, -0.156142458319664 -6.37545108795166, -0.1391950994729996 -6.457151889801025, -0.1262770444154739 -6.539586067199707, -0.1174194067716598 -6.622554779052734, -0.1126435175538063 -6.70585823059082, -0.111960880458355 -6.789295673370361, -0.1153731495141983 -6.872665882110596, -0.1228720918297768 -6.955768585205078, -0.1344396471977234 -7.038403034210205, -0.1500479578971863 -7.120370388031006, -0.1696594059467316 -7.201473236083984, -0.193226769566536 -7.281516075134277, -0.2206932455301285 -7.3603057861328125, -0.2519926726818085 -7.437653064727783, -0.2870496511459351 -7.513371467590332, -0.3257797360420227 -7.587278366088867, -0.3680896162986755 -7.659195899963379, -0.4138773381710052 -7.7289509773254395, -0.4630326330661774 -7.796375274658203, -0.5154370665550232 -7.861306190490723, -1.0542796850204468 -7.583774566650391, -1.2639902870557342 -8.366425157055383, -1.3449326753616333 -8.396136283874512, -1.506340137660065 -8.429616676458945, -0.7768388986587524 -5.412780284881592)), ((-0.6294808387756348 -7.98306941986084, -0.5154370665550232 -7.861306190490723, -0.6294808387756348 -7.983069896697998, -0.8215212225914001 -8.143320083618164, -0.6294808387756348 -7.98306941986084)), ((-7.943733215332031 3.0333220958709717, -8.11018180847168 2.846627712249756, -7.9437336921691895 3.0333220958709717, -7.751692771911621 3.193572759628296, -7.943733215332031 3.0333220958709717)), ((-7.98306941986084 0.6294808387756348, -7.796375274658203 0.4630326330661774, -7.983069896697998 0.6294808387756348, -8.09306812286377 0.7549103498458862, -7.98306941986084 0.6294808387756348)), ((0.5709643959999084 7.923587799072266, 0.4630326330661774 7.796375274658203, 0.5709643959999084 7.923588275909424, 0.6908454298973083 8.039608001708984, 0.5709643959999084 7.923587799072266)), ((3.1433207988739014 7.81830358505249, 2.9738402366638184 8.002249717712402, 3.1433207988739014 7.818304061889648, 3.2404956817626953 7.682696342468262, 3.1433207988739014 7.81830358505249)), ((7.81830358505249 -3.1433207988739014, 8.002249717712402 -2.9738402366638184, 7.818304061889648 -3.1433207988739014, 7.682696342468262 -3.2404956817626953, 7.81830358505249 -3.1433207988739014)), ((7.923587799072266 -0.5709643959999084, 7.861306190490723 -0.5154370665550232, 7.923588275909424 -0.5709643959999084, 8.09306812286377 -0.7549103498458862, 7.923587799072266 -0.5709643959999084)), ((5.530005931854248 -1.0768431425094604, 5.579228401184082 -0.5901445746421814, 5.6405930519104 -0.5336056351661682, 5.704658031463623 -0.4801458418369293, 5.530005931854248 -1.0768431425094604)))